VendorNumber,VendorName,Address1,Address2,City,State,Zip,ContactName,Attention,Phone,Fax,ContactEmailAddress,TypeOf1099,TaxID,Active,StandardTermDayNum,NumDaysForDiscount,PercentDiscount,DefaultMemoLine,DefaultPayUseTax,ShippingTerms,PaymentTerms,Notes,Taxable,AccountNumber,CityStateZip,YN1099,Terms,Discount,ActiveYN,VendorType,ParentVendorNumber,POBlanketNumber,MinorityTypeDescription,MinorityCertificationNumber,CCName,UserCodeLabel1,UserCodeLabel2,UserCodeLabel3,UserCodeLabel4,UserCodeLabel5,UserCodeLabel6,UserCodeLabel7,UserCodeLabel8,UserCodeLabel9,UserCodeLabel10,UserCodeLabel11,UserCodeLabel12,UserCodeLabel13,UserCodeLabel14,UserCodeLabel15,UserCodeLabel16,UserCodeLabel17,UserCodeLabel18,UserCodeLabel19,UserCodeLabel20,UserCodeLabel21,UserCodeLabel22,UserCodeLabel23,UserCodeLabel24,UserCodeLabel25,UserCodeLabel26,UserCode1,UserCode2,UserCode3,UserCode4,UserCode5,UserCode6,UserCode7,UserCode8,UserCode9,UserCode10,UserCode11,UserCode12,UserCode13,UserCode14,UserCode15,UserCode16,UserCode17,UserCode18,UserCode19,UserCode20,UserCode21,UserCode22,UserCode23,UserCode24,UserCode25,UserCode26,DefaultPaymentMethod,DefaultPaymentVendorNumber,DefaultPaymentCCVendorNumber,CreditReconciledDate,PrintAPMemoLine,ReconcileVendor
10000,Comcast,PO Box 530098,,Atlanta,GA,30353-0098,,,8003913000,,,,,0,24,,,8495753103356191,0,,,,0,8495753103356191,"Atlanta, GA 30353-0098",None,Day 24, ,No,Services,,,,,,,,,,,,,,,,,,,,,,,,,,,,,,,,,,,,,,,,,,,,,,,,,,,,,,,,,,Check,,,,0,0
1000,1000BULBS.COM,2140 MERRITT DR,,GARLAND,TX,75041,,,,,,,,1,30,,,,0,,,,0,,"GARLAND, TX 75041",None,Day 30, ,Yes,Supplies,,,,,,,,,,,,,,,,,,,,,,,,,,,,,,,,,,,,,,,,,,,,,,,,,,,,,,,,,,Check,,,,0,0
1006,A.A.C. UNITED FIRE & SAFETY EQUIP,305 S.W. 15TH AVE,,POMPANO BEACH,FL,33069,,,,,,,,1,30,,,,0,,,,0,,"POMPANO BEACH, FL 33069",None,Day 30, ,Yes,Supplies,,,,,,,,,,,,,,,,,,,,,,,,,,,,,,,,,,,,,,,,,,,,,,,,,,,,,,,,,,Check,,,,0,0
1015,ADT SECURITY,P.O. BOX 538083,,ATLANTA,GA,30353-8083,,,,,,,,1,30,,,,0,,,,0,,"ATLANTA, GA 30353-8083",None,Day 30, ,Yes,Services,,,,,,,,,,,,,,,,,,,,,,,,,,,,,,,,,,,,,,,,,,,,,,,,,,,,,,,,,,Check,,,,0,0
1032,AMERICAN EXPRESS,,,,,,,,,,,,,1,30,,,,0,,,,0,,,None,Day 30, ,Yes,Other,,,,,Debbie Polcino,,,,,,,,,,,,,,,,,,,,,,,,,,,,,,,,,,,,,,,,,,,,,,,,,,,,,Check,,,12/31/2015,0,0
1037,AMSAN FLORIDA,3031 N ANDREWS AVENUE EXTENSION,,POMPANO BEACH,FL,33064,,Jorge Finlay,3054710077,8004349616,,,,1,30,,,,0,,,,0,440314,"POMPANO BEACH, FL 33064",None,Day 30, ,Yes,Supplies,,,,,,,,,,,,,,,,,,,,,,,,,,,,,,,,,,,,,,,,,,,,,,,,,,,,,,,,,,Check,,,,0,0
1044,Arlene Haywood,,,,,,,,,,,,,1,30,,,,0,,,,0,,,None,Day 30, ,Yes,Other,,,,,,,,,,,,,,,,,,,,,,,,,,,,,,,,,,,,,,,,,,,,,,,,,,,,,,,,,,Check,,,,0,0
1047,AT & T,PO BOX 105262,,ATLANTA,GA,30348-5262,,,,,,,,1,30,,,,0,,,,0,56162401772020459,"ATLANTA, GA 30348-5262",None,Day 30, ,Yes,Utiliites,,,,,,,,,,,,,,,,,,,,,,,,,,,,,,,,,,,,,,,,,,,,,,,,,,,,,,,,,,Check,,,,0,0
1048,AT & T MOBILITY,P.O. BOX 6463,,CAROL STREAM,IL,60197-6463,,,,,,,,1,30,,,,0,,,,0,,"CAROL STREAM, IL 60197-6463",None,Day 30, ,Yes,Utiliites,,,,,,,,,,,,,,,,,,,,,,,,,,,,,,,,,,,,,,,,,,,,,,,,,,,,,,,,,,Check,,,,0,0
1057,BB&T,,,,,,,,,,,,,1,30,,,,0,,,,0,,,None,Day 30, ,Yes,Other,,,,,,,,,,,,,,,,,,,,,,,,,,,,,,,,,,,,,,,,,,,,,,,,,,,,,,,,,,Check,,,,0,0
1058,BEACON GLASS CO,620 N. OLD DIXIE HWY,,JUPITER,FL,33458,,,,,,,,1,30,,,,0,,,,0,,"JUPITER, FL 33458",None,Day 30, ,Yes,Supplies,,,,,,,,,,,,,,,,,,,,,,,,,,,,,,,,,,,,,,,,,,,,,,,,,,,,,,,,,,Check,,,,0,0
1067,BOILER REPAIR SERVICE,3389 SHERIDAN ST,SUITE 298,HOLLYWOOD,FL,33021,,,,,,,,1,30,,,,0,,,,0,,"HOLLYWOOD, FL 33021",None,Day 30, ,Yes,Supplies,,,,,,,,,,,,,,,,,,,,,,,,,,,,,,,,,,,,,,,,,,,,,,,,,,,,,,,,,,NACHA,,,,0,0
1072,BROWARD   COUNTY TAX COLLECTOR,115 S. ANDREWS AVE,RM A-100,FORT LAUDERDALE,FL,33301,,,,,,,,1,30,,,,0,,,,0,,"FORT LAUDERDALE, FL 33301",None,Day 30, ,Yes,Other,,,,,,,,,,,,,,,,,,,,,,,,,,,,,,,,,,,,,,,,,,,,,,,,,,,,,,,,,,Check,,,,0,0
1073,BROWARD COUNTY CLERK OF COURTS,201 SE 6TH STREET,,FORT LAUDERDALE,FL,33301,,,,,,,,1,30,,,,0,,,,0,,"FORT LAUDERDALE, FL 33301",None,Day 30, ,Yes,Other,,,,,,,,,,,,,,,,,,,,,,,,,,,,,,,,,,,,,,,,,,,,,,,,,,,,,,,,,,Check,,,,0,0
1074,BROWARD COUNTY REVENUE COLLECTOR,P.O Box 29009,,Fort Lauderdale,FL,33302-9009,,,,,,,,1,30,,,,0,,,,0,,"Fort Lauderdale, FL 33302-9009",None,Day 30, ,Yes,Other,,,,,,,,,,,,,,,,,,,,,,,,,,,,,,,,,,,,,,,,,,,,,,,,,,,,,,,,,,Check,,,,0,0
1084,CANON BUSINESS SOLUTIONS,15004 COLLECTIONS CENTER DRIVE,,CHICAGO,IL,60693-0149,,,,,,,,1,30,,,,0,,,,0,,"CHICAGO, IL 60693-0149",None,Day 30, ,Yes,Other,,,,,,,,,,,,,,,,,,,,,,,,,,,,,,,,,,,,,,,,,,,,,,,,,,,,,,,,,,Check,,,,0,0
1091,CHEM AQUA,23261 Network Place,,Chicago,IL,60673,,CHEMAQUA,,,,,,1,30,,,,0,,,,0,,"Chicago, IL 60673",None,Day 30, ,Yes,Subcontractor,,,,,,,,,,,,,,,,,,,,,,,,,,,,,,,,,,,,,,,,,,,,,,,,,,,,,,,,,,NACHA,,,,0,0
1099,CITY OF FORT LAUDERDALE PARKING,CITATION PAYMENT CENTER,P.O. BOX 31631,TAMPA,FL,33631-3631,,,,,,,,1,30,,,,0,,,,0,,"TAMPA, FL 33631-3631",None,Day 30, ,Yes,Other,,,,,,,,,,,,,,,,,,,,,,,,,,,,,,,,,,,,,,,,,,,,,,,,,,,,,,,,,,Check,,,,0,0
1101,CITY OF FORT LAUDERDALE TREASURY,P.O. BOX 31687,,TAMPA,FL,33631-3687,,,,,,,,1,30,,,,0,,,,0,,"TAMPA, FL 33631-3687",None,Day 30, ,Yes,Other,,,,,,,,,,,,,,,,,,,,,,,,,,,,,,,,,,,,,,,,,,,,,,,,,,,,,,,,,,Check,,,,0,0
1103,CITY OF MIAMI,PAYMENT PROCESSING CENTER,POX BOX105206,Atlanta,GA,30348-5206,,,,,,,,1,30,,,,0,,,,0,,"Atlanta, GA 30348-5206",None,Day 30, ,Yes,Other,,,,,,,,,,,,,,,,,,,,,,,,,,,,,,,,,,,,,,,,,,,,,,,,,,,,,,,,,,Check,,,,0,0
1112,COMCAST,P.O. BOX 530098,,ATLANTA,GA,30353-0098,,,,,,,,1,30,,,,0,,,,0,,"ATLANTA, GA 30353-0098",None,Day 30, ,Yes,Utiliites,,,,,,,,,,,,,,,,,,,,,,,,,,,,,,,,,,,,,,,,,,,,,,,,,,,,,,,,,,Check,,,,0,0
1117,CONSTRUCTIVELY CLEAN LLC,10851 S. Ocean Drive,Lot #34,Jensen Beach,FL,34957,,Lynn Barnette,,,,,51-0646323,1,30,,,,0,,,,0,,"Jensen Beach, FL 34957",None,Day 30, ,Yes,Subcontractor,,,,,,,,,,,,,,,,,,,,,,,,,,,,,,,,,,,,,,,,,,,,,,,,,,,,,,,,,,Check,,,,0,0
1118,COSGROVE ENTERPRISES,14300 NW 77th CT,,MIAMI LAKES,FL,33016,,JOSE MERCADO,3058205600,,,,,1,30,,,,0,,,,0,,"MIAMI LAKES, FL 33016",None,Day 30, ,Yes,Supplies,,,,,,,,,,,,,,,,,,,,,,,,,,,,,,,,,,,,,,,,,,,,,,,,,,,,,,,,,,NACHA,,,,0,0
1122,DADEPAPER COMPANY,9601 NW 112TH AVE,PO BOX 523666,MIAMI,FL,33178,,,,,,,,1,30,,,,0,,,,0,,"MIAMI, FL 33178",None,Day 30, ,Yes,Supplies,,,,,,,,,,,,,,,,,,,,,,,,,,,,,,,,,,,,,,,,,,,,,,,,,,,,,,,,,,NACHA,,,,0,0
1123,DASZKAL BOLTON,2401 NW BOCA RATON BLVD,,BOCA RATON,FL,33431-6632,,,,,,,,1,30,,,,0,,,,0,,"BOCA RATON, FL 33431-6632",None,Day 30, ,Yes,Services,,,,,,,,,,,,,,,,,,,,,,,,,,,,,,,,,,,,,,,,,,,,,,,,,,,,,,,,,,Check,,,,0,0
1130,DEVCON SECURITY,P.O. BOX 538083,,ATLANTA,GA,30353-8083,,,,,,,,1,30,,,,0,,,,0,,"ATLANTA, GA 30353-8083",None,Day 30, ,Yes,Services,,,,,,,,,,,,,,,,,,,,,,,,,,,,,,,,,,,,,,,,,,,,,,,,,,,,,,,,,,Check,,,,0,0
1131,"DIRECT SUPPLIES WAREHOUSE, INC",100 HANCOCK STREET,,LODI,NJ,07644,,,,,,,,1,30,,,,0,,,,0,,"LODI, NJ 07644",None,Day 30, ,Yes,Supplies,,,,,,,,,,,,,,,,,,,,,,,,,,,,,,,,,,,,,,,,,,,,,,,,,,,,,,,,,,Check,,,,0,0
1138,DML CONSTRUCTION GROUP,43 S. POWERLINE RD,Suite #428,POMPANO BEACH,FL,33069,,,9542246925,,,,47-5407345,1,30,,,,0,,,,0,,"POMPANO BEACH, FL 33069",None,Day 30, ,Yes,Subcontractor,,,,,,,,,,,,,,,,,,,,,,,,,,,,,,,,,,,,,,,,,,,,,,,,,,,,,,,,,,Check,,,,0,0
1140,DOWN UNDER TANK TESTING OF FLORID,13301 SW 132 Ave,Suite 112,Miami,FL,33186,,Veronica,7862276045,,,,,1,30,,,,0,,,,0,,"Miami, FL 33186",None,Day 30, ,Yes,Subcontractor,,,,,,,,,,,,,,,,,,,,,,,,,,,,,,,,,,,,,,,,,,,,,,,,,,,,,,,,,,NACHA,,,,0,0
1142,DRY-CONCEPTS,4190 SOUTH UNIVERSITY DRIVE,,DAVIE,FL,33328,,,,,,,,1,30,,,,0,,,,0,,"DAVIE, FL 33328",None,Day 30, ,Yes,Subcontractor,,,,,,,,,,,,,,,,,,,,,,,,,,,,,,,,,,,,,,,,,,,,,,,,,,,,,,,,,,Check,,,,0,0
1147,Enterprise,,,Kansas City,MO,64180-0089,,,,,,,,1,30,,,,0,,,,0,,"Kansas City, MO 64180-0089",None,Day 30, ,Yes,Other,,,,,,,,,,,,,,,,,,,,,,,,,,,,,,,,,,,,,,,,,,,,,,,,,,,,,,,,,,Check,,,,0,0
1149,EVOQUA,EVOQUA WATER TECHNOLOGIES LLC,28563 Network Place,Chicago,IL,60673,,,,,,,,1,30,,,,0,,,,0,,"Chicago, IL 60673",None,Day 30, ,Yes,Subcontractor,,,,,,,,,,,,,,,,,,,,,,,,,,,,,,,,,,,,,,,,,,,,,,,,,,,,,,,,,,NACHA,,,,0,0
1153,FAU FOUNDATION,"777 GLADES ROAD,","Deans Office, College of Business",BOCA RATON,FL,33431,,,,,,,,1,30,,,,0,,,,0,139442,"BOCA RATON, FL 33431",None,Day 30, ,Yes,Other,,,,,,,,,,,,,,,,,,,,,,,,,,,,,,,,,,,,,,,,,,,,,,,,,,,,,,,,,,Check,,,,0,0
1154,Florida Atlantic University,"777 GLADES ROAD, BLDG 69",,BOCA RATON,FL,33431,,Linda Kersich,,,,,,1,30,,,,0,,,,0,,"BOCA RATON, FL 33431",None,Day 30, ,Yes,Utiliites,,,,,,,,,,,,,,,,,,,,,,,,,,,,,,,,,,,,,,,,,,,,,,,,,,,,,,,,,,Check,,,,0,0
1155,FAU TRAFFIC AND PARKING,"777 GLADES ROAD, BLDG 69",,BOCA RATON,FL,33431,,,,,,,,1,30,,,,0,,,,0,,"BOCA RATON, FL 33431",None,Day 30, ,Yes,Other,,,,,,,,,,,,,,,,,,,,,,,,,,,,,,,,,,,,,,,,,,,,,,,,,,,,,,,,,,Check,,,,0,0
1157,FCCI INSURANCE GROUP,6300 UNIVERSITY PARKWAY,,SARASOTA,FL,34240,,,,,,,,1,30,,,,0,,,,0,,"SARASOTA, FL 34240",None,Day 30, ,Yes,Other,,,,,,,,,,,,,,,,,,,,,,,,,,,,,,,,,,,,,,,,,,,,,,,,,,,,,,,,,,Check,,,,0,0
1159,FEDEX,FedEx,P.O. BOX 660481,DALLAS,TX,75266-0481,,,,,,,,1,30,,,,0,,,,0,,"DALLAS, TX 75266-0481",None,Day 30, ,Yes,Services,,,,,,,,,,,,,,,,,,,,,,,,,,,,,,,,,,,,,,,,,,,,,,,,,,,,,,,,,,Check,,,,0,0
1164,FLORDA ATLANTIC UNIVERSITY,FAU-PHYSICAL PLANT,777 GLADES RD BLDG 5 RM 212,BOCA RATON,FL,33431,,,,,,,,1,30,,,,0,,,,0,,"BOCA RATON, FL 33431",None,Day 30, ,Yes,Other,,,,,,,,,,,,,,,,,,,,,,,,,,,,,,,,,,,,,,,,,,,,,,,,,,,,,,,,,,Check,,,,0,0
1165,FLORIDA ATLANTIC UNIVERSITY (VEN),BLDG #22 - ROOM #245,777 GLADES ROAD,BOCA RATON,FL,33431,,Linda R. Kersich,5622972356,,,,,1,30,,,,0,,,,0,,"BOCA RATON, FL 33431",None,Day 30, ,Yes,Other,,,,,,,,,,,,,,,,,,,,,,,,,,,,,,,,,,,,,,,,,,,,,,,,,,,,,,,,,,Check,,,,0,0
1166,FLORIDA ATLANTIC UNIVERSITY FOUND,777 GLADES ROAD,AD 295,BOCA ROTAN,FL,33431,,,,,,,,1,30,,,,0,,,,0,,"BOCA ROTAN, FL 33431",None,Day 30, ,Yes,Other,,,,,,,,,,,,,,,,,,,,,,,,,,,,,,,,,,,,,,,,,,,,,,,,,,,,,,,,,,Check,,,,0,0
1167,FLORIDA DEPARTMENT OF REVENUE,5050 W TENNESSEE STEET,,TALLAHASSEE,FL,32399-0110,,,,,,,,1,30,,,,0,,,,0,,"TALLAHASSEE, FL 32399-0110",None,Day 30, ,Yes,Other,,,,,,,,,,,,,,,,,,,,,,,,,,,,,,,,,,,,,,,,,,,,,,,,,,,,,,,,,,Check,,,,0,0
1168,Florida Department of State,,,,,,,,,,,,,1,30,,,,0,,,,0,,,None,Day 30, ,Yes,Other,,,,,,,,,,,,,,,,,,,,,,,,,,,,,,,,,,,,,,,,,,,,,,,,,,,,,,,,,,Check,,,,0,0
1169,FLORIDA DEPARTMENT OF TRANSPORTAT,TOLL-BY-PLATE,PO BOX 880089,BOCA RATON,FL,33488-0089,,,,,,,,1,30,,,,0,,,,0,,"BOCA RATON, FL 33488-0089",None,Day 30, ,Yes,Other,,,,,,,,,,,,,,,,,,,,,,,,,,,,,,,,,,,,,,,,,,,,,,,,,,,,,,,,,,Check,,,,0,0
1171,Florida Int'l University,11200 Sw 8th St,,Miami,FL,33199,,,3053482187,,,,,1,30,,,,0,,,,0,,"Miami, FL 33199",None,Day 30, ,Yes,Other,,,,,,,,,,,,,,,,,,,,,,,,,,,,,,,,,,,,,,,,,,,,,,,,,,,,,,,,,,Check,,,,0,0
1172,FPL,GENERAL MAIL FACILITY,,MIAMI,FL,33188-0001,,,,,,,,1,30,,,,0,,,,0,,"MIAMI, FL 33188-0001",None,Day 30, ,Yes,Utiliites,,,,,,,,,,,,,,,,,,,,,,,,,,,,,,,,,,,,,,,,,,,,,,,,,,,,,,,,,,Check,,,,0,0
1174,"FRANK H. FURMAN, INC",P.O. Box 1927,,Pompano Beach,FL,33061,,,,,,,,1,30,,,,0,,,,0,,"Pompano Beach, FL 33061",None,Day 30, ,Yes,Services,,,,,,,,,,,,,,,,,,,,,,,,,,,,,,,,,,,,,,,,,,,,,,,,,,,,,,,,,,Check,,,,0,0
1176,FUELMAN,PO BOX 105080,,ATLANTA,GA,30348-5080,,,,,,,,1,30,,,,0,,,,0,,"ATLANTA, GA 30348-5080",None,Day 30, ,Yes,Supplies,,,,,,,,,,,,,,,,,,,,,,,,,,,,,,,,,,,,,,,,,,,,,,,,,,,,,,,,,,Check,,,,0,0
1177,"Furniture Systems Plus, Inc",1840 NW 65th Ave,,Plantation,FL,33313,,Bemnet Berhane,9545813289,9545814659,,,,1,30,,,,0,,,,0,,"Plantation, FL 33313",None,Day 30, ,Yes,Supplies,,,,,,,,,,,,,,,,,,,,,,,,,,,,,,,,,,,,,,,,,,,,,,,,,,,,,,,,,,Check,,,,0,0
1179,"GLOBAL BACKGROUND SCREENING, INC",20900 NE 30TH AVE,SUITE 843,AVENTURA,FL,33180,,,,,,,,1,30,,,,0,,,,0,,"AVENTURA, FL 33180",None,Day 30, ,Yes,Services,,,,,,,,,,,,,,,,,,,,,,,,,,,,,,,,,,,,,,,,,,,,,,,,,,,,,,,,,,Check,,,,0,0
1185,H&E EQUIPMENT SERVICE,PO BOX 849850,,DALLAS,TX,75284,,Nestor Campbell,9549734023,9549734158,,,,1,30,,,,0,,,,0,,"DALLAS, TX 75284",None,Day 30, ,Yes,Supplies,,,,,,,,,,,,,,,,,,,,,,,,,,,,,,,,,,,,,,,,,,,,,,,,,,,,,,,,,,Check,,,,0,0
1336,STAPLES,Dept ATL,PO Box 405386,Atlanta,GA,30384-5386,,,,,,,,1,30,,,,0,,,,0,,"Atlanta, GA 30384-5386",None,Day 30, ,Yes,Supplies,,,,,,,,,,,,,,,,,,,,,,,,,,,,,,,,,,,,,,,,,,,,,,,,,,,,,,,,,,Check,,,,0,0
1337,STATE OF FLORIDA,Florida State Disbursement Unit,P.O. Box 8500,Tallahassee,FL,32314-8500,,,,,,,,1,30,,,,0,,,,0,,"Tallahassee, FL 32314-8500",None,Day 30, ,Yes,Other,,,,,,,,,,,,,,,,,,,,,,,,,,,,,,,,,,,,,,,,,,,,,,,,,,,,,,,,,,Check,,,,0,0
1345,TAGIT SOLUTIONS,5201 GREAT AMERICA PARKWAY,SUITE 320,SANTA CLARA,CA,95054,,,,,,,,1,30,,,,0,,,,0,,"SANTA CLARA, CA 95054",None,Day 30, ,Yes,Services,,,,,,,,,,,,,,,,,,,,,,,,,,,,,,,,,,,,,,,,,,,,,,,,,,,,,,,,,,Check,,,,0,0
1349,"TEAM SOFTWARE, INC",407 S 27TH AVE,,OMAHA,NE,68131,,,,,,,,1,30,,,,0,,,,0,,"OMAHA, NE 68131",None,Day 30, ,Yes,Services,,,,,,,,,,,,,,,,,,,,,,,,,,,,,,,,,,,,,,,,,,,,,,,,,,,,,,,,,,Check,,,,0,0
1351,TECSERV,3980 PEMBROKE ROAD,,HOLLYWOOD,FL,33021,,,,,,,,1,30,,,,0,,,,0,,"HOLLYWOOD, FL 33021",None,Day 30, ,Yes,Supplies,,,,,,,,,,,,,,,,,,,,,,,,,,,,,,,,,,,,,,,,,,,,,,,,,,,,,,,,,,Check,,,,0,0
1352,TENNANT COMPANY,P.O. Box 71414,,Chicago,IL,60694,,,,,,,,1,30,,,,0,,,,0,,"Chicago, IL 60694",None,Day 30, ,Yes,Supplies,,,,,,,,,,,,,,,,,,,,,,,,,,,,,,,,,,,,,,,,,,,,,,,,,,,,,,,,,,Check,,,,0,0
1358,THE WORKSS CLEAN INC,6555 W 26TH DRIVE #12,,HIALEAH,FL,33316,,,,,,,47-3510591,1,30,,,,0,,,,0,,"HIALEAH, FL 33316",None,Day 30, ,Yes,Subcontractor,,,,,,,,,,,,,,,,,,,,,,,,,,,,,,,,,,,,,,,,,,,,,,,,,,,,,,,,,,Check,,,,0,0
1359,"TOTAL JANITORIAL SUPPLIES, INC",225 GOULSBY BLVD.,,DEERFIELD BEACH,FL,33442,,,,,,,,1,30,,,,0,,,,0,,"DEERFIELD BEACH, FL 33442",None,Day 30, ,Yes,Supplies,,,,,,,,,,,,,,,,,,,,,,,,,,,,,,,,,,,,,,,,,,,,,,,,,,,,,,,,,,Check,,,,0,0
1362,U.S. HEATH WORKS MEDICAL GROUP,P.O. BOX 404473,,ATLANTA,GA,30384,,,,,,,,1,30,,,,0,,,,0,,"ATLANTA, GA 30384",None,Day 30, ,Yes,Services,,,,,,,,,,,,,,,,,,,,,,,,,,,,,,,,,,,,,,,,,,,,,,,,,,,,,,,,,,Check,,,,0,0
1363,Advantica,P.O. Box 798349,,Saint Louis,MO,63126-0510,,,,3148494830,,,,1,30,,,,0,,,,0,,"Saint Louis, MO 63126-0510",None,Day 30, ,Yes,Services,,,,,,,,,,,,,,,,,,,,,,,,,,,,,,,,,,,,,,,,,,,,,,,,,,,,,,,,,,Check,,,,0,0
1367,UNITED STATES TREASURY,PO BOX 105017,,ATLANTA,GA,30348-5017,,,,,,,,1,30,,,,0,,,,0,,"ATLANTA, GA 30348-5017",None,Day 30, ,Yes,Other,,,,,,,,,,,,,,,,,,,,,,,,,,,,,,,,,,,,,,,,,,,,,,,,,,,,,,,,,,Check,,,,0,0
1373,VERIZON WIRELESS,,,PO BOX,,06601-08,,,,,,,,1,30,,,,0,,,,0,,"PO BOX,   06601-08",None,Day 30, ,Yes,Utiliites,,,,,,,,,,,,,,,,,,,,,,,,,,,,,,,,,,,,,,,,,,,,,,,,,,,,,,,,,,Check,,,,0,0
1374,"VESTY NETWORKS, LLC",4912 Skidmore St,,Raleigh,NC,27609-4516,,,,,,,,1,30,,,,0,,,,0,,"Raleigh, NC 27609-4516",None,Day 30, ,Yes,Services,,,,,,,,,,,,,,,,,,,,,,,,,,,,,,,,,,,,,,,,,,,,,,,,,,,,,,,,,,Check,,,,0,0
1375,VP PRESS,3934 Davie Blvd.,,Ft. lauderdale,FL,33312,,Vinnie,9545817531,9543210152,,,,1,30,,,,0,,,,0,,"Ft. lauderdale, FL 33312",None,Day 30, ,Yes,Services,,,,,,,,,,,,,,,,,,,,,,,,,,,,,,,,,,,,,,,,,,,,,,,,,,,,,,,,,,Check,,,,0,0
1378,W W GRAINGER,DEPARTMENT 876500851,P.O. BOX 419267,KANSAS CITY,MO,64141-6267,,,,,,,,1,30,,,,0,,,,0,,"KANSAS CITY, MO 64141-6267",None,Day 30, ,Yes,Supplies,,,,,,,,,,,,,,,,,,,,,,,,,,,,,,,,,,,,,,,,,,,,,,,,,,,,,,,,,,Check,,,,0,0
1379,"WATER BOY, INC.",4454 19TH STREET COURT EAST,,BRADENTON,FL,34203,,,,,,,,1,30,,,,0,,,,0,,"BRADENTON, FL 34203",None,Day 30, ,Yes,Services,,,,,,,,,,,,,,,,,,,,,,,,,,,,,,,,,,,,,,,,,,,,,,,,,,,,,,,,,,Check,,,,0,0
1380,WINDSOR INDUSTRIES,1351 WEST STANFORD AVENUE,,ENGLEWOOD,CO,80110,,,,,,,,1,30,,,,0,,,,0,,"ENGLEWOOD, CO 80110",None,Day 30, ,Yes,Supplies,,,,,,,,,,,,,,,,,,,,,,,,,,,,,,,,,,,,,,,,,,,,,,,,,,,,,,,,,,Check,,,,0,0
1187,Handy Dave's Services,101412 W MCNAB ROAD,,TAMARAC,FL,33321,,,,,,,,1,30,,,,0,,,,0,,"TAMARAC, FL 33321",None,Day 30, ,Yes,Subcontractor,,,,,,,,,,,,,,,,,,,,,,,,,,,,,,,,,,,,,,,,,,,,,,,,,,,,,,,,,,Check,,,,0,0
1189,HD SUPPLY,PO BOX 509058,,SAN DIEGO,CA,92150,,,,,,,,1,30,,,,0,,,,0,,"SAN DIEGO, CA 92150",None,Day 30, ,Yes,Supplies,,,,,,,,,,,,,,,,,,,,,,,,,,,,,,,,,,,,,,,,,,,,,,,,,,,,,,,,,,Check,,,,0,0
1194,ID WHOLESALER,1501 NW 163RD ST,,MIAMI,FL,33169,,,,,,,,1,30,,,,0,,,,0,,"MIAMI, FL 33169",None,Day 30, ,Yes,Supplies,,,,,,,,,,,,,,,,,,,,,,,,,,,,,,,,,,,,,,,,,,,,,,,,,,,,,,,,,,Check,,,,0,0
1197,INFINITY ROOFING & SHEET METAL IN,1150 SW 10TH AVENUE,SUITE 201W,POMPANO BEACH,FL,33069,,,,,,,,1,30,,,,0,,,,0,,"POMPANO BEACH, FL 33069",None,Day 30, ,Yes,Subcontractor,,,,,,,,,,,,,,,,,,,,,,,,,,,,,,,,,,,,,,,,,,,,,,,,,,,,,,,,,,Check,,,,0,0
1198,INLET ELECTRIC INC OF JUPITER,17964 APRIL LANE,,JUPITER,FL,33458,,,,,,,,1,30,,,,0,,,,0,,"JUPITER, FL 33458",None,Day 30, ,Yes,Subcontractor,,,,,,,,,,,,,,,,,,,,,,,,,,,,,,,,,,,,,,,,,,,,,,,,,,,,,,,,,,Check,,,,0,0
1203,INTERNAL REVENUE SERVICE,,,KANSAS CITY,MO,64999-0202,,,,,,,,1,30,,,,0,,,,0,,"KANSAS CITY, MO 64999-0202",None,Day 30, ,Yes,Other,,,,,,,,,,,,,,,,,,,,,,,,,,,,,,,,,,,,,,,,,,,,,,,,,,,,,,,,,,Check,,,,0,0
1210,KARCHER NORTH AMERICA INC.,Dept CH 19244,,Palatine,IL,60055,,,,,,,,1,30,,,,0,,,,0,,"Palatine, IL 60055",None,Day 30, ,Yes,Supplies,,,,,,,,,,,,,,,,,,,,,,,,,,,,,,,,,,,,,,,,,,,,,,,,,,,,,,,,,,Check,,,,0,0
1211,KERNS CONSTRUCTION,2701 Industrial 2nd Ave,,Fort Pierce,FL,34946,,,,,,,,1,30,,,,0,,,,0,,"Fort Pierce, FL 34946",None,Day 30, ,Yes,Subcontractor,,,,,,,,,,,,,,,,,,,,,,,,,,,,,,,,,,,,,,,,,,,,,,,,,,,,,,,,,,Check,,,,0,0
1215,KONE INC,KONE INC,PO BOX 429,MOLINE,IL,61266-0429,,,,,,,,1,30,,,,0,,,,0,,"MOLINE, IL 61266-0429",None,Day 30, ,Yes,Subcontractor,,,,,,,,,,,,,,,,,,,,,,,,,,,,,,,,,,,,,,,,,,,,,,,,,,,,,,,,,,Check,,,,0,0
1217,KWANTEK,9300 SHELBYVILLE ROAD,SUITE 600,LOUISVILLE,KY,40222,,,,,,,,1,30,,,,0,,,,0,,"LOUISVILLE, KY 40222",None,Day 30, ,Yes,Services,,,,,,,,,,,,,,,,,,,,,,,,,,,,,,,,,,,,,,,,,,,,,,,,,,,,,,,,,,Check,,,,0,0
1218,LABCORP OCCUPATIONAL TESTING,P.O. BOX 12140,,BURLINGTON,NC,27215-2140,,,,,,,,1,30,,,,0,,,,0,,"BURLINGTON, NC 27215-2140",None,Day 30, ,Yes,Services,,,,,,,,,,,,,,,,,,,,,,,,,,,,,,,,,,,,,,,,,,,,,,,,,,,,,,,,,,Check,,,,0,0
1227,LOTSPEICH COMPANY OF FLORIDA INC.,7435 CENTRAL INDUSTRIAL DR,SUITE A,RIVIERA BEACH,FL,33404,,,,,,,,1,30,,,,0,,,,0,,"RIVIERA BEACH, FL 33404",None,Day 30, ,Yes,Services,,,,,,,,,,,,,,,,,,,,,,,,,,,,,,,,,,,,,,,,,,,,,,,,,,,,,,,,,,Check,,,,0,0
1228,"M & T Cleaning Solutions, LLC",3400 Spanish Wells Dr,Unit B,Delray Beach,FL,33445,,,5614944918,,,,47-1153975,1,30,,,,0,,,,0,,"Delray Beach, FL 33445",None,Day 30, ,Yes,Subcontractor,,,,,,,,,,,,,,,,,,,,,,,,,,,,,,,,,,,,,,,,,,,,,,,,,,,,,,,,,,Check,,,,0,0
1229,MAF BACKGROUND SCREENING,1801 Broadway,,San Antonio,TX,78215,,,,,,,,1,30,,,,0,,,,0,,"San Antonio, TX 78215",None,Day 30, ,Yes,Services,,,,,,,,,,,,,,,,,,,,,,,,,,,,,,,,,,,,,,,,,,,,,,,,,,,,,,,,,,Check,,,,0,0
1235,MARK'S PLUMBING AND MAINTENANCE S,PO BOX 121554,,FORT WORTH,TX,76121,,,,,,,75-1868379,1,30,,,,0,,,,0,,"FORT WORTH, TX 76121",None,Day 30, ,Yes,Subcontractor,,,,,,,,,,,,,,,,,,,,,,,,,,,,,,,,,,,,,,,,,,,,,,,,,,,,,,,,,,Check,,,,0,0
1239,MedAssets,P.O. Box 741361,,Atlanta,GA,30374-7413,,Nena Glastetter,5733322208,5733322311,,,,1,30,,,,0,,,,0,,"Atlanta, GA 30374-7413",None,Day 30, ,Yes,Services,,,,,,,,,,,,,,,,,,,,,,,,,,,,,,,,,,,,,,,,,,,,,,,,,,,,,,,,,,Check,,,,0,0
1240,Met Life,,,,,,,,,,,,,1,30,,,,0,,,,0,,,None,Day 30, ,Yes,Other,,,,,,,,,,,,,,,,,,,,,,,,,,,,,,,,,,,,,,,,,,,,,,,,,,,,,,,,,,Check,,,,0,0
1243,Miami-Dade County Public Schools,1450 N.E. Second Ave,Suite #311,Miami,FL,33132,,,,,,,,1,30,,,,0,,,,0,,"Miami, FL 33132",None,Day 30, ,Yes,Other,,,,,,,,,,,,,,,,,,,,,,,,,,,,,,,,,,,,,,,,,,,,,,,,,,,,,,,,,,Check,,,,0,0
1244,MIAMI-DADE COUNTY TAX COLLECTOR,PO BOX 13701,,MIAMI,FL,33101-3701,,,,,,,,1,30,,,,0,,,,0,,"MIAMI, FL 33101-3701",None,Day 30, ,Yes,Other,,,,,,,,,,,,,,,,,,,,,,,,,,,,,,,,,,,,,,,,,,,,,,,,,,,,,,,,,,Check,,,,0,0
1245,Miami Dade Aviation Dept,P.O. Box 025504,,Miami,FL,33102,,,,,,,,1,30,,,,0,,,,0,,"Miami, FL 33102",None,Day 30, ,Yes,Other,,,,,,,,,,,,,,,,,,,,,,,,,,,,,,,,,,,,,,,,,,,,,,,,,,,,,,,,,,Check,,,,0,0
1246,"MIAMI DADE COLLEGE FOUNDATION , I",300 NE SECOND AVENUE,ROOM 1423-1,MIAMI,FL,33132,,,,,,,,1,30,,,,0,,,,0,,"MIAMI, FL 33132",None,Day 30, ,Yes,Other,,,,,,,,,,,,,,,,,,,,,,,,,,,,,,,,,,,,,,,,,,,,,,,,,,,,,,,,,,Check,,,,0,0
1249,"MISTER PLUMBER, INC",991 STINSON WAY,STE 403,WEST PALM BEACH,FL,33411-3739,,,,,,,,1,30,,,,0,,,,0,,"WEST PALM BEACH, FL 33411-3739",None,Day 30, ,Yes,Subcontractor,,,,,,,,,,,,,,,,,,,,,,,,,,,,,,,,,,,,,,,,,,,,,,,,,,,,,,,,,,Check,,,,0,0
1250,"MLK Charitable Corporation, Inc",,,Danai Beach,FL,33004,,Carolyn Jones,,,,,,1,30,,,,0,,,,0,,"Danai Beach, FL 33004",None,Day 30, ,Yes,Other,,,,,,,,,,,,,,,,,,,,,,,,,,,,,,,,,,,,,,,,,,,,,,,,,,,,,,,,,,Check,,,,0,0
1256,Mutual of Omaha,PO Box 2147,Premium Processing Center,Omaha,NE,68103-2147,,,8007697159,4029971992,,,,1,30,,,,0,,,,0,,"Omaha, NE 68103-2147",None,Day 30, ,Yes,Services,,,,,,,,,,,,,,,,,,,,,,,,,,,,,,,,,,,,,,,,,,,,,,,,,,,,,,,,,,Check,,,,0,0
1257,NATIONAL SERVICE ALLIANCE,2105 WATER RIDGE PARKWAY,STE 595,CHARLOTTE,NC,28217,,,,,,,,1,30,,,,0,,,,0,,"CHARLOTTE, NC 28217",None,Day 30, ,Yes,Services,,,,,,,,,,,,,,,,,,,,,,,,,,,,,,,,,,,,,,,,,,,,,,,,,,,,,,,,,,Check,,,,0,0
1261,NILFISK-ADVANCE,Dept 3251,PO Box 12351,Dallas,TX,75312-3251,,,,,,,,1,30,,,,0,,,,0,,"Dallas, TX 75312-3251",None,Day 30, ,Yes,Supplies,,,,,,,,,,,,,,,,,,,,,,,,,,,,,,,,,,,,,,,,,,,,,,,,,,,,,,,,,,NACHA,,,,0,0
1266,NUVEK,P.O. Box 1692,,Pocatello,ID,83204-1692,,,,,,,,1,30,,,,0,,,,0,,"Pocatello, ID 83204-1692",None,Day 30, ,Yes,Services,,,,,,,,,,,,,,,,,,,,,,,,,,,,,,,,,,,,,,,,,,,,,,,,,,,,,,,,,,Check,,,,0,0
1268,OAK GRAPHIX,3000 S OCEAN DRIVE,APT 408,FL,,33019,,,,,,,,1,30,,,,0,,,,0,,"FL,   33019",None,Day 30, ,Yes,Services,,,,,,,,,,,,,,,,,,,,,,,,,,,,,,,,,,,,,,,,,,,,,,,,,,,,,,,,,,Check,,,,0,0
1269,OCCUPATIONAL HEALTH CENTERS OF TH,PO BOX 82549,,HAPERVILLE,GA,30354-0549,,,,,,,,1,30,,,,0,,,,0,,"HAPERVILLE, GA 30354-0549",None,Day 30, ,Yes,Services,,,,,,,,,,,,,,,,,,,,,,,,,,,,,,,,,,,,,,,,,,,,,,,,,,,,,,,,,,Check,,,,0,0
1270,OCCUPATIONAL MEDICINE CENTERS,12014 MIRAMAR PARKWAY,,MIRAMAR,FL,33025-7000,,,,,,,,1,30,,,,0,,,,0,,"MIRAMAR, FL 33025-7000",None,Day 30, ,Yes,Services,,,,,,,,,,,,,,,,,,,,,,,,,,,,,,,,,,,,,,,,,,,,,,,,,,,,,,,,,,Check,,,,0,0
1271,OFFICE XPRESS,15476 NW 77TH COURT,#415,MIAMI LAKES,FL,33016,,,,,,,,1,30,,,,0,,,,0,,"MIAMI LAKES, FL 33016",None,Day 30, ,Yes,Supplies,,,,,,,,,,,,,,,,,,,,,,,,,,,,,,,,,,,,,,,,,,,,,,,,,,,,,,,,,,Check,,,,0,0
1277,ORKIN PEST CONTROL,2257 Vista Parkway,Suite 5,WEST PALM BEACH,FL,33411,,,,,,,,1,30,,,,0,,,,0,,"WEST PALM BEACH, FL 33411",None,Day 30, ,Yes,Subcontractor,,,,,,,,,,,,,,,,,,,,,,,,,,,,,,,,,,,,,,,,,,,,,,,,,,,,,,,,,,NACHA,,,,0,0
1281,PALM BEACH GOLF CARTS,13438 MILITARY TRAIL,,DELRAY BEACH,FL,33484-1346,,,,,,,,1,30,,,,0,,,,0,,"DELRAY BEACH, FL 33484-1346",None,Day 30, ,Yes,Supplies,,,,,,,,,,,,,,,,,,,,,,,,,,,,,,,,,,,,,,,,,,,,,,,,,,,,,,,,,,Credit Card,,,,0,0
1289,PERFECTLY PURE POOLS,P.O. BOX 15678,,WEST PALM BEACH,FL,33416,,,,,,,,1,30,,,,0,,,,0,,"WEST PALM BEACH, FL 33416",None,Day 30, ,Yes,Subcontractor,,,,,,,,,,,,,,,,,,,,,,,,,,,,,,,,,,,,,,,,,,,,,,,,,,,,,,,,,,Check,,,,0,0
1290,PERSONNEL CONCEPTS,PO BOX 3353,,SAN DIMAS,CA,91773-7353,,,,,,,,1,30,,,,0,,,,0,,"SAN DIMAS, CA 91773-7353",None,Day 30, ,Yes,Services,,,,,,,,,,,,,,,,,,,,,,,,,,,,,,,,,,,,,,,,,,,,,,,,,,,,,,,,,,Check,,,,0,0
1302,PRINT FAST SOLUTIONS,2421 NW 16 Lane,#5,POMPANO BEACH,FL,33064,,,,,,,,1,30,,,,0,,,,0,,"POMPANO BEACH, FL 33064",None,Day 30, ,Yes,Services,,,,,,,,,,,,,,,,,,,,,,,,,,,,,,,,,,,,,,,,,,,,,,,,,,,,,,,,,,Check,,,,0,0
1304,"PRO PAINTING ENTERPRISES, INC",105 NW 9TH TERRACE,,HALLANDALE BEACH,FL,33009,,,,,,,,1,30,,,,0,,,,0,,"HALLANDALE BEACH, FL 33009",None,Day 30, ,Yes,Services,,,,,,,,,,,,,,,,,,,,,,,,,,,,,,,,,,,,,,,,,,,,,,,,,,,,,,,,,,Check,,,,0,0
1306,PROFESSIONAL BUILDING SERVICES,7027 W BROWARD BLVD.,,PLANTATION,FL,33317,,,,,,,59-2706742,1,30,,,,0,,,,0,,"PLANTATION, FL 33317",None,Day 30, ,Yes,Subcontractor,,,,,,,,,,,,,,,,,,,,,,,,,,,,,,,,,,,,,,,,,,,,,,,,,,,,,,,,,,Check,,,,0,0
1309,"PROMOTIONAL BREEZES, INC",2300 E. Oakland Park Blvd.,Suite #207,Fort Lauderdale,FL,33312,,,9545672664,9545671402,,,,1,30,,,,0,,,,0,,"Fort Lauderdale, FL 33312",None,Day 30, ,Yes,Services,,,,,,,,,,,,,,,,,,,,,,,,,,,,,,,,,,,,,,,,,,,,,,,,,,,,,,,,,,NACHA,,,,0,0
1312,QQUEST SOTWARE SYSTEMS,9350 S 150 E,STE 300,SANDY,UT,84070-2702,,,,,,,,1,30,,,,0,,,,0,,"SANDY, UT 84070-2702",None,Day 30, ,Yes,Services,,,,,,,,,,,,,,,,,,,,,,,,,,,,,,,,,,,,,,,,,,,,,,,,,,,,,,,,,,Check,,,,0,0
1316,RCS Group of Florida Corp,6915 SW 57 Ave,Suite 222,Mami,FL,33143,,,,,,1,591-38-9893,1,30,,,,0,,,,0,,"Mami, FL 33143",Yes 591-38-9893,Day 30, ,Yes,Services,,,,,,,,,,,,,,,,,,,,,,,,,,,,,,,,,,,,,,,,,,,,,,,,,,,,,,,,,,NACHA,,,,0,0
1321,"RISING TIDE DEVELOPMENT, LLC",20445 EMERALD PARKWAY DRIVE SW,SUITE 220,CLEVELAND,OH,44135,,,,,,,,1,30,,,,0,,,,0,,"CLEVELAND, OH 44135",None,Day 30, ,Yes,Services,,,,,,,,,,,,,,,,,,,,,,,,,,,,,,,,,,,,,,,,,,,,,,,,,,,,,,,,,,Check,,,,0,0
1323,SAGEQUEST,PO BOX 347744,,PITTSBURGH,PA,15251-4744,,,,,,,,1,30,,,,0,,,,0,,"PITTSBURGH, PA 15251-4744",None,Day 30, ,Yes,Services,,,,,,,,,,,,,,,,,,,,,,,,,,,,,,,,,,,,,,,,,,,,,,,,,,,,,,,,,,Check,,,,0,0
1325,SB PAINTING AND WATERPROOFING,8080 BELVEDERE RD. SUITE 8,,WEST PALM BEACH,FL,33411,,,,,,,,1,30,,,,0,,,,0,,"WEST PALM BEACH, FL 33411",None,Day 30, ,Yes,Subcontractor,,,,,,,,,,,,,,,,,,,,,,,,,,,,,,,,,,,,,,,,,,,,,,,,,,,,,,,,,,Check,,,,0,0
1326,SEACOAST UNIFORMS,5893 S CONGRESS AVENUE,,ATLANTIS,FL,33462,,,,,,,,1,30,,,,0,,,,0,,"ATLANTIS, FL 33462",None,Day 30, ,Yes,Supplies,,,,,,,,,,,,,,,,,,,,,,,,,,,,,,,,,,,,,,,,,,,,,,,,,,,,,,,,,,Check,,,,0,0
1328,"SHOES FOR CREWS, LLC",P.O. BOX 504634,,ST LOUIS,MO,63150-4634,,,,,,,,1,30,,,,0,,,,0,,"ST LOUIS, MO 63150-4634",None,Day 30, ,Yes,Supplies,,,,,,,,,,,,,,,,,,,,,,,,,,,,,,,,,,,,,,,,,,,,,,,,,,,,,,,,,,Check,,,,0,0
1329,SHRED-IT USA,P.O. BOX 13574,,NEW YORK,NY,10087-3574,,,,,,,,1,30,,,,0,,,,0,,"NEW YORK, NY 10087-3574",None,Day 30, ,Yes,Services,,,,,,,,,,,,,,,,,,,,,,,,,,,,,,,,,,,,,,,,,,,,,,,,,,,,,,,,,,Check,,,,0,0
1331,SIMPLEXGRINNELL,DEPT CH 10320,,PALATINE,IL,60055-0320,,Lori Bennett,5612774146,,,,,1,30,,,,0,,,,0,,"PALATINE, IL 60055-0320",None,Day 30, ,Yes,Supplies,,,,,,,,,,,,,,,,,,,,,,,,,,,,,,,,,,,,,,,,,,,,,,,,,,,,,,,,,,Check,,,,0,0
1332,SKY'S THE LIMIT WINDOW CLEANING I,11096 52ND RD N,,West Palm Beach,FL,33411,,,,,,,,1,30,,,,0,,,,0,,"West Palm Beach, FL 33411",None,Day 30, ,Yes,Subcontractor,,,,,,,,,,,,,,,,,,,,,,,,,,,,,,,,,,,,,,,,,,,,,,,,,,,,,,,,,,Check,,,,0,0
10007,"Diversified Administration, Inc",6161 Washington St,,Hollywood,FL,33023,,,,,,,,1,30,,,,0,,,,0,,"Hollywood, FL 33023",None,Day 30, ,Yes,Supplies,,,,,,,,,,,,,,,,,,,,,,,,,,,,,,,,,,,,,,,,,,,,,,,,,,,,,,,,,,Check,,,,0,0
10010,Tabs,Po Box 17031,,Winston Salem,NC,27116-7031,,,,,,,,1,30,,,,0,,,,0,,"Winston Salem, NC 27116-7031",None,Day 30, ,Yes,Other,,,,,,,,,,,,,,,,,,,,,,,,,,,,,,,,,,,,,,,,,,,,,,,,,,,,,,,,,,NACHA,,,,0,0
10012,Expert Pat,,,,,,,,,,,,,1,30,,,,0,,,,0,,,None,Day 30, ,Yes,Other,,,,,,,,,,,,,,,,,,,,,,,,,,,,,,,,,,,,,,,,,,,,,,,,,,,,,,,,,,Check,,,,0,0
10013,Summit,Po Box 32034,,Lakeland,FL,33802-2034,,,8002827648,,,,,1,30,,,,0,,,,0,,"Lakeland, FL 33802-2034",None,Day 30, ,Yes,Other,,,,,,,,,,,,,,,,,,,,,,,,,,,,,,,,,,,,,,,,,,,,,,,,,,,,,,,,,,Check,,,,0,0
10014,Substain Llc,,,,,,,,,,,,,1,30,,,,0,,,,0,,,None,Day 30, ,Yes,Services,,,,,,,,,,,,,,,,,,,,,,,,,,,,,,,,,,,,,,,,,,,,,,,,,,,,,,,,,,Check,,,,0,0
10015,Joseph Fedner,,,,,,,,,,,,,1,30,,,,0,,,,0,,,None,Day 30, ,Yes,Other,,,,,,,,,,,,,,,,,,,,,,,,,,,,,,,,,,,,,,,,,,,,,,,,,,,,,,,,,,Check,,,,0,0
10017,Transamerica Life Insurance Co,P.O. Box 742504,,Cincinnati,OH,45274,,,8887637474,,,,,1,30,,,,0,,,,0,G000032236,"Cincinnati, OH 45274",None,Day 30, ,Yes,Other,,,,,,,,,,,,,,,,,,,,,,,,,,,,,,,,,,,,,,,,,,,,,,,,,,,,,,,,,,Check,,,,0,0
10001,"Hospitality Careers Online, Inc",C/O Comerica Bank,Po Box 673682,Detroit,MI,48267-3437,,,,,,,,1,30,,,,0,,,,0,,"Detroit, MI 48267-3437",None,Day 30, ,Yes,Services,,,,,,,,,,,,,,,,,,,,,,,,,,,,,,,,,,,,,,,,,,,,,,,,,,,,,,,,,,Check,,,,0,0
10002,Leading Edge Printing,4303 South 90th Street,,Omaha,NE,68127,,,,,,,,1,30,,,,0,,,,0,,"Omaha, NE 68127",None,Day 30, ,Yes,Services,,,,,,,,,,,,,,,,,,,,,,,,,,,,,,,,,,,,,,,,,,,,,,,,,,,,,,,,,,Check,,,,0,0
10003,"Power Pro-Tech Services, Inc.",377 MAITLAND AVENUE,Suite 1010,Altamonte Springs,FL,32701,,,,,,,,1,30,,,,0,,,,0,,"Altamonte Springs, FL 32701",None,Day 30, ,Yes,Services,,,,,,,,,,,,,,,,,,,,,,,,,,,,,,,,,,,,,,,,,,,,,,,,,,,,,,,,,,Check,,,,0,0
10004,Ramtel,115 Railroad Ave.,,Johnston,RI,02919,,,,,,,,1,30,,,,0,,,,0,,"Johnston, RI 02919",None,Day 30, ,Yes,Other,,,,,,,,,,,,,,,,,,,,,,,,,,,,,,,,,,,,,,,,,,,,,,,,,,,,,,,,,,Check,,,,0,0
10005,"Weiss, Alden & Polo, P.A.",1401 Brickell Avenue,Suite 300,Miami,FL,33131,,,,,,1,123456,1,30,,,,0,,,,0,,"Miami, FL 33131",Yes 123456,Day 30, ,Yes,Services,,,,,,,,,,,,,,,,,,,,,,,,,,,,,,,,,,,,,,,,,,,,,,,,,,,,,,,,,,Check,,,,0,0
10006,Dirt Pros,,,,,,,,,,,,,1,30,,,,0,,,,0,,,None,Day 30, ,Yes,Other,,,,,,,,,,,,,,,,,,,,,,,,,,,,,,,,,,,,,,,,,,,,,,,,,,,,,,,,,,Check,,,,0,0
10008,Endeavor Miami,121 Alhambra Plaza,STE 1605,Miami,FL,33134,,,7869537541,,,,,1,30,,,,0,,,,0,,"Miami, FL 33134",None,Day 30, ,Yes,Other,,,,,,,,,,,,,,,,,,,,,,,,,,,,,,,,,,,,,,,,,,,,,,,,,,,,,,,,,,Check,,,,0,0
10009,Payroll,,,,,,,,,,,,,1,30,,,,0,,,This was created for outstanding oayroll checks from 2015,0,,,None,Day 30, ,Yes,Other,,,,,,,,,,,,,,,,,,,,,,,,,,,,,,,,,,,,,,,,,,,,,,,,,,,,,,,,,,Check,,,,0,0
10011,Misc,,,,,,,,,,,,,1,30,,,,0,,,used for debit card transactions,0,,,None,Day 30, ,Yes,Other,,,,,,,,,,,,,,,,,,,,,,,,,,,,,,,,,,,,,,,,,,,,,,,,,,,,,,,,,,Check,,,,0,0
10016,"Ultimate Water, Llc",P.O. Box 677784,,Dallas,TX,75267-7784,,,8008057084,9545705333,,,,1,30,,,,0,,,,0,9543182477,"Dallas, TX 75267-7784",None,Day 30, ,Yes,Utiliites,,,,,,,,,,,,,,,,,,,,,,,,,,,,,,,,,,,,,,,,,,,,,,,,,,,,,,,,,,Check,,,,0,0
10018,Accountemps,12400 Collections Center Drive,,Chicago,IL,60693,,,8007763770,,,,94-1648752,1,30,,,,0,,Upon Receipt,,0,01000-103992000,"Chicago, IL 60693",None,Day 30, ,Yes,Services,,,,,,,,,,,,,,,,,,,,,,,,,,,,,,,,,,,,,,,,,,,,,,,,,,,,,,,,,,NACHA,,,,0,0
1219,Lighthouse.Io  Inc,34 3rd Ave,Suite 174,New York,NY,10003,,Fianace,,,,,,1,30,,,,0,,,,0,,"New York, NY 10003",None,Day 30, ,Yes,Services,,,,,,,,,,,,,,,,,,,,,,,,,,,,,,,,,,,,,,,,,,,,,,,,,,,,,,,,,,Check,,,,0,0
1318,Rebeca De Ojeda,,,,,,,,,,,,,1,30,,,,0,,15 Days,,0,,,None,Day 30, ,Yes,Subcontractor,,,,,,,,,,,,,,,,,,,,,,,,,,,,,,,,,,,,,,,,,,,,,,,,,,,,,,,,,,NACHA,,,,0,0
10020,Byoglobe,4968 Sw 52 Street,#420,Fort Lauderdale,FL,33314,,,9543829459,9545336375,,,,1,30,,,,0,,,,0,,"Fort Lauderdale, FL 33314",None,Day 30, ,Yes,Supplies,,,,,,,,,,,,,,,,,,,,,,,,,,,,,,,,,,,,,,,,,,,,,,,,,,,,,,,,,,Check,,,,0,0
10019,Xoombi,Po Box 848833,,Hollywood,FL,33084,,,,,,,,1,30,,,,0,,,,0,,"Hollywood, FL 33084",None,Day 30, ,Yes,Services,,,,,,,,,,,,,,,,,,,,,,,,,,,,,,,,,,,,,,,,,,,,,,,,,,,,,,,,,,Check,,,,0,0
1040,Amsdell Companies,2700 W Cypress Creek Rd,Suite  A-105,Fort Lauderdale,FL,33309,,,5616131915,,,,,1,30,,,,0,,,,0,,"Fort Lauderdale, FL 33309",None,Day 30, ,Yes,Other,,,,,,,,,,,,,,,,,,,,,,,,,,,,,,,,,,,,,,,,,,,,,,,,,,,,,,,,,,Check,,,,0,0
1062,Bethune & Associates,14435 N. 7th St,Suite 201,Phoenix,AZ,85022,,,6025482408,,,,,1,30,,,,0,,,,0,,"Phoenix, AZ 85022",None,Day 30, ,Yes,Other,,,,,,,,,,,,,,,,,,,,,,,,,,,,,,,,,,,,,,,,,,,,,,,,,,,,,,,,,,Check,,,,0,0
10021,Augustin Sanchez Perez,,,,,,,,,,,,,1,30,,,,0,,,,0,,,None,Day 30, ,Yes,Other,,,,,,,,,,,,,,,,,,,,,,,,,,,,,,,,,,,,,,,,,,,,,,,,,,,,,,,,,,Check,,,,0,0
10022,Antonio Duverge,2638 Nw 104 Avenue,Apt #401,Fort Lauderdale,FL,33322,,,9545337142,,,,,1,30,,,,0,,,,0,,"Fort Lauderdale, FL 33322",None,Day 30, ,Yes,Utiliites,,,,,,,,,,,,,,,,,,,,,,,,,,,,,,,,,,,,,,,,,,,,,,,,,,,,,,,,,,Check,,,,0,0
10026,Hub Spot,,,,,,,,,,,,,1,30,,,,0,,,,0,,,None,Day 30, ,Yes,Services,,,,,,,,,,,,,,,,,,,,,,,,,,,,,,,,,,,,,,,,,,,,,,,,,,,,,,,,,,Check,,,,0,0
10027,The Key Digital,555 Crandon Blvd,Unuit 54,Key Biscayne,FL,33149,,,6462637390,,,,,1,30,,,,0,,,,0,,"Key Biscayne, FL 33149",None,Day 30, ,Yes,Services,,,,,,,,,,,,,,,,,,,,,,,,,,,,,,,,,,,,,,,,,,,,,,,,,,,,,,,,,,Check,,,,0,0
10028,Able Business Services,1234 NW 79th Street,,Miami,FL,33147,,,7864999681,,,,,1,30,,,,0,,,,0,,"Miami, FL 33147",None,Day 30, ,Yes,Supplies,,,,,,,,,,,,,,,,,,,,,,,,,,,,,,,,,,,,,,,,,,,,,,,,,,,,,,,,,,NACHA,,,,0,0
1390,Air Compressor Works,1956 West 9th Street,,West Palm Beach,FL,33404,,,5618444559,5618448247,,,59-1906385,1,30,,,,0,,,,0,,"West Palm Beach, FL 33404",None,Day 30, ,Yes,Supplies,,,,,,,,,,,,,,,,,,,,,,,,,,,,,,,,,,,,,,,,,,,,,,,,,,,,,,,,,,Check,,,,0,0
10029,Uline,Po Box 88741,,Chicago,IL,60680,,,8002955510,,,,36-3684738,1,30,,,,0,,,,0,10170659,"Chicago, IL 60680",None,Day 30, ,Yes,Supplies,,,,,,,,,,,,,,,,,,,,,,,,,,,,,,,,,,,,,,,,,,,,,,,,,,,,,,,,,,Check,,,,0,0
10032,C & S Pressure Cleaning & Painting,14720 SW 150 St,,Miami,FL,33196,,,3059054791,3052552491,,,,1,30,,,,0,,30 Days,,0,,"Miami, FL 33196",None,Day 30, ,Yes,Subcontractor,,,,,,,,,,,,,,,,,,,,,,,,,,,,,,,,,,,,,,,,,,,,,,,,,,,,,,,,,,Check,,,,0,0
10023,Advantage Golf Cars,7100  N Military Trail,,Palm Beach Gardens,FL,33410,,,5612536800,,,,,1,30,,,,0,,,,0,,"Palm Beach Gardens, FL 33410",None,Day 30, ,Yes,Services,,,,,,,,,,,,,,,,,,,,,,,,,,,,,,,,,,,,,,,,,,,,,,,,,,,,,,,,,,Check,,,,0,0
10024,Sherwin Williams,1251 Jupiterr Park Drive,Suite 1,Jupiter,FL,33458,,,5617442392,,,,,1,30,,,,0,,,,0,,"Jupiter, FL 33458",None,Day 30, ,Yes,Supplies,,,,,,,,,,,,,,,,,,,,,,,,,,,,,,,,,,,,,,,,,,,,,,,,,,,,,,,,,,Check,,,,0,0
10030,"Enterpriser FM Exchange, Inc",,,,,,,,,,,,,1,30,,,,0,,,,0,,,None,Day 30, ,Yes,[NONE],,,,,,,,,,,,,,,,,,,,,,,,,,,,,,,,,,,,,,,,,,,,,,,,,,,,,,,,,,Check,,,,0,0
10033,Qualtrics,2250 N. University Pkwy,48-C,Provo,UT,84604,,,8017092160,8665629828,,,45-4964116,1,30,,,,0,,,,0,,"Provo, UT 84604",None,Day 30, ,Yes,Services,,,,,,,,,,,,,,,,,,,,,,,,,,,,,,,,,,,,,,,,,,,,,,,,,,,,,,,,,,Credit Card,,,,0,0
10034,Elisabeth Villalobos,6450 Collins Ave,,Miami Beach,FL,33141,,,,,,,,1,30,,,,0,,,,0,,"Miami Beach, FL 33141",None,Day 30, ,Yes,Services,,,,,,,,,,,,,,,,,,,,,,,,,,,,,,,,,,,,,,,,,,,,,,,,,,,,,,,,,,Check,,,,0,0
10035,Glass USA,4372 N.E. 11 Ave,,Fort Lauderdale,FL,33334,,,9545619216,,,,,1,30,,,,0,,,,0,,"Fort Lauderdale, FL 33334",None,Day 30, ,Yes,Services,,,,,,,,,,,,,,,,,,,,,,,,,,,,,,,,,,,,,,,,,,,,,,,,,,,,,,,,,,Check,,,,0,0
10036,Supreme Corporation,4816 Solution Center,,Chicago,IL,60677,,,7702286742,,,,,1,30,,,,0,,,,0,,"Chicago, IL 60677",None,Day 30, ,Yes,Supplies,,,,,,,,,,,,,,,,,,,,,,,,,,,,,,,,,,,,,,,,,,,,,,,,,,,,,,,,,,Check,,,,0,0
1353,"THECC, Inc",,,,,,,,,,,,,1,30,,,,0,,15 Days,,0,,,None,Day 30, ,Yes,Services,,,,,,,,,,,,,,,,,,,,,,,,,,,,,,,,,,,,,,,,,,,,,,,,,,,,,,,,,,NACHA,,,,0,0
10037,Edgardo  Cozzi,101 NW Pleasant Grove Way,,Port Saint Lucie,FL,34986,,,,,,,,1,30,,,,0,,,,0,,"Port Saint Lucie, FL 34986",None,Day 30, ,Yes,Other,,,,,,,,,,,,,,,,,,,,,,,,,,,,,,,,,,,,,,,,,,,,,,,,,,,,,,,,,,Check,,,,0,0
10025,Hesler Solares,11 Avenida 4-10 zona 12,,,,,,,,,,,,1,30,,,,0,,,,0,,,None,Day 30, ,Yes,Services,,,,,,,,,,,,,,,,,,,,,,,,,,,,,,,,,,,,,,,,,,,,,,,,,,,,,,,,,,Check,,,,0,0
1206,Jazz,40 24th Street 2nd Floor,,Pittsburgh,PA,15222,,,8883530887,,,,,1,30,,,,0,,,,0,,"Pittsburgh, PA 15222",None,Day 30, ,Yes,Services,,,,,,,,,,,,,,,,,,,,,,,,,,,,,,,,,,,,,,,,,,,,,,,,,,,,,,,,,,Check,,,,0,0
1260,New Concept,11150 W. Sample Road,,Pompano Beach,FL,33065,,,9544713439,,,,,1,30,,,,0,,,,0,,"Pompano Beach, FL 33065",None,Day 30, ,Yes,Subcontractor,,,,,,,,,,,,,,,,,,,,,,,,,,,,,,,,,,,,,,,,,,,,,,,,,,,,,,,,,,Check,,,,0,0
10031,Ana Sofia Gonzalez Mendez,Carretera a El Salvador Km.,12.5 Santa Rosalia Calle Los Ficus casa 29-09,Santa Catarina Pinula,GUATEMALA,,,,,,,,5133373-2,1,30,,,,0,,,,0,,"Santa Catarina Pinula, GUATEMALA ",None,Day 30, ,Yes,Services,,,,,,,,,,,,,,,,,,,,,,,,,,,,,,,,,,,,,,,,,,,,,,,,,,,,,,,,,,Check,,,,0,0
1205,JNC Communications Inc,934 University Drive,#210,Coral Springs,FL,33071,,,9547530901,9547526092,,,,1,30,,,,0,,,,0,,"Coral Springs, FL 33071",None,Day 30, ,Yes,Services,,,,,,,,,,,,,,,,,,,,,,,,,,,,,,,,,,,,,,,,,,,,,,,,,,,,,,,,,,Check,,,,0,0
